EUTELSAT QUANTUM        
1 49056U 21069B   25338.01062243  .00000142  00000+0  00000+0 0  9996
2 49056   0.0193  20.2063 0003805 246.4084 218.0115  1.00271978 15971
EUTELSAT KONNECT VHTS   
1 53765U 22110A   25337.21699630  .00000036  00000+0  00000+0 0  9995
2 53765   0.0603 107.1016 0002764 123.1613 282.8564  1.00269007  4867
EUTELSAT HOTBIRD 13F    
1 54048U 22134A   25338.07510281  .00000103  00000+0  00000+0 0  9990
2 54048   0.0523 291.1034 0002113  62.9296 119.1592  1.00270626 11424
EUTELSAT HOTBIRD 13G    
1 54225U 22146A   25338.07510281  .00000104  00000+0  00000+0 0  9991
2 54225   0.0481 238.3515 0002144 307.4733 287.3658  1.00271083  5510
EUTELSAT 10B            
1 54259U 22157A   25337.19003163  .00000087  00000+0  00000+0 0  9998
2 54259   0.0608 103.5780 0001038  72.8343 334.2971  1.00268425 11069
EUTELSAT 36D            
1 59346U 24059A   25337.58030921  .00000000  00000+0  00000+0 0  9993
2 59346   0.0224 345.8589 0000659 317.7492  13.8207  1.00270882  6186
